STARLINK-5783           
1 56022U 23042AN  26182.87886462  .00000134  00000+0  14400-4 0  9994
2 56022  43.0035 119.9698 0001571 273.5883  86.4789 15.27576817180500
STARLINK-5771           
1 56023U 23042AP  26182.87258565  .00000205  00000+0  16972-4 0  9997
2 56023  43.0042 120.7764 0000945 273.9885  86.0858 15.27576384180493
STARLINK-5772           
1 56024U 23042AQ  26182.10579610  .00000098  00000+0  13079-4 0  9996
2 56024  43.0030 124.4820 0001286 260.3100  99.7606 15.27574898180382
STARLINK-5766           
1 56025U 23042AR  26182.87129446  .00001003  00000+0  45966-4 0  9996
2 56025  43.0034 120.7631 0000957 269.2649  90.8093 15.27580805180495
STARLINK-5770           
1 56026U 23042AS  26182.81733140  .00000411  00000+0  24452-4 0  9992
2 56026  43.0032 120.3694 0001474 277.8230  82.2455 15.27579709180482
STARLINK-5777           
1 56027U 23042AT  26182.87759649 -.00001814  00000+0 -56446-4 0  9999
2 56027  43.0022 119.9625 0001242 272.7116  87.3593 15.27563653180503
STARLINK-5779           
1 56028U 23042AU  26182.90070336  .00000995  00000+0  45690-4 0  9999
2 56028  43.0014 120.1250 0001365 259.2793 100.7905 15.27578555180504
STARLINK-5774           
1 56029U 23042AV  26182.88657413 -.00000058  00000+0  74165-5 0  9995
2 56029  43.0024 120.0218 0001634 267.4236  92.6429 15.27576171180503
STARLINK-5781           
1 56030U 23042AW  26182.90458092 -.00002164  00000+0 -69166-4 0  9997
2 56030  43.0008 120.1525 0001544 274.6698  85.3977 15.27558283180502
STARLINK-5785           
1 56031U 23042AX  26182.10836437  .00000193  00000+0  16539-4 0  9997
2 56031  43.0035 124.5038 0001600 263.4543  96.6126 15.27576266180386
STARLINK-5786           
1 56032U 23042AY  26182.85330894  .00000670  00000+0  33859-4 0  9990
2 56032  43.0005 120.6290 0001151 264.8253  95.2467 15.27580246180493
STARLINK-5782           
1 56034U 23042BA  26182.14177400  .00001855  00000+0  76887-4 0  9990
2 56034  43.0009 124.7446 0001189 249.9069 110.1654 15.27585173180384
STARLINK-5792           
1 56035U 23042BB  26182.90841825  .00000781  00000+0  37899-4 0  9991
2 56035  43.0019 120.1821 0001073 256.9154 103.1578 15.27578605180501
STARLINK-5790           
1 56036U 23042BC  26182.85202475  .00000251  00000+0  18655-4 0  9999
2 56036  43.0016 120.6036 0000753 229.4913 130.5873 15.27578061180490
STARLINK-5758           
1 56037U 23042BD  26182.86408427  .00001002  00000+0  45929-4 0  9995
2 56037  43.0020 105.9511 0001367 260.3594  99.7103 15.27574741180663
STARLINK-5793           
1 56038U 23042BE  26182.86872927  .00001028  00000+0  46857-4 0  9995
2 56038  43.0008 120.7373 0000455 213.4164 146.6659 15.27574064180497
STARLINK-5795           
1 56039U 23042BF  26182.81668937  .00000403  00000+0  24169-4 0  9993
2 56039  43.0022 106.4544 0000896 256.3336 103.7416 15.27579272180650
STARLINK-5798           
1 56040U 23042BG  26182.10129488  .00000262  00000+0  19022-4 0  9995
2 56040  43.0027 110.5352 0000597 245.3716 114.7074 15.27575157180546
STARLINK-5800           
1 56041U 23042BH  26182.78663879  .00001557  00000+0  66079-4 0  9999
2 56041  43.0039 109.6236 0001372 254.1979 105.8721 15.27595221180613
ONEWEB-0537             
1 56046U 23043A   26182.86201017 -.00000030  00000+0 -11127-3 0  9996
2 56046  87.9084 225.8571 0002260  93.1725 266.9665 13.16593996160892
ONEWEB-0538             
1 56047U 23043B   26182.85567402 -.00000051  00000+0 -16582-3 0  9992
2 56047  87.9088 225.8609 0002256 100.2107 259.9279 13.16593681160904
ONEWEB-0546             
1 56048U 23043C   26182.84300724 -.00000165  00000+0 -46580-3 0  9991
2 56048  87.9087 225.8635 0002566  84.7680 275.3744 13.16593857160891
ONEWEB-0547             
1 56049U 23043D   26182.85753213  .00000053  00000+0  95694-4 0  9993
2 56049  87.9250 241.0555 0002111 103.0011 257.1359 13.21826357160164
ONEWEB-0548             
1 56050U 23043E   26182.86754575  .00000184  00000+0  44678-3 0  9998
2 56050  87.9082 225.8545 0001694  86.1231 274.0094 13.16594023160898
ONEWEB-0549             
1 56051U 23043F   26182.92734565  .00000045  00000+0  76368-4 0  9991
2 56051  87.9242 241.0474 0002342 104.2518 255.8876 13.21826248160178
ONEWEB-0550             
1 56052U 23043G   26182.91389806  .00000064  00000+0  12334-3 0  9998
2 56052  87.9246 241.0476 0001832  98.2244 261.9098 13.21826229160179
ONEWEB-0551             
1 56053U 23043H   26182.91034734  .00000023  00000+0  26029-4 0  9998
2 56053  87.8999 256.2930 0002217 107.3747 252.7626 13.15546672158339
ONEWEB-0552             
1 56054U 23043J   26182.90882896  .00000008  00000+0 -11280-4 0  9995
2 56054  87.9242 241.0541 0001965 102.9952 257.1402 13.21825489160179
ONEWEB-0553             
1 56055U 23043K   26182.84933983 -.00000127  00000+0 -36456-3 0  9997
2 56055  87.9086 225.8624 0002255  86.7679 273.3710 13.16593749160904
ONEWEB-0554             
1 56056U 23043L   26182.83667800  .00000011  00000+0 -40516-5 0  9994
2 56056  87.9083 225.8736 0001639  84.9642 275.1676 13.16594963160888
