OBJECT_NAME,OBJECT_ID,EPOCH,MEAN_MOTION,ECCENTRICITY,INCLINATION,RA_OF_ASC_NODE,ARG_OF_PERICENTER,MEAN_ANOMALY,EPHEMERIS_TYPE,CLASSIFICATION_TYPE,NORAD_CAT_ID,ELEMENT_SET_NO,REV_AT_EPOCH,BSTAR,MEAN_MOTION_DOT,MEAN_MOTION_DDOT
STARLINK-5783,2023-042AN,2026-07-01T21:05:33.903168,15.27576817,.00015717,43.0035,119.9698,273.5883,86.4789,0,U,56022,999,18050,.14400284E-4,.134E-5,0
STARLINK-5771,2023-042AP,2026-07-01T20:56:31.400160,15.27576384,.00009459,43.0042,120.7764,273.9885,86.0858,0,U,56023,999,18049,.16971561E-4,.205E-5,0
STARLINK-5772,2023-042AQ,2026-07-01T02:32:20.783040,15.27574898,.00012861,43.0030,124.4820,260.3100,99.7606,0,U,56024,999,18038,.13078544E-4,.98E-6,0
STARLINK-5766,2023-042AR,2026-07-01T20:54:39.841344,15.27580805,.00009575,43.0034,120.7631,269.2649,90.8093,0,U,56025,999,18049,.45965561E-4,.1003E-4,0
STARLINK-5770,2023-042AS,2026-07-01T19:36:57.432960,15.27579709,.00014749,43.0032,120.3694,277.8230,82.2455,0,U,56026,999,18048,.24451795E-4,.411E-5,0
STARLINK-5777,2023-042AT,2026-07-01T21:03:44.336736,15.27563653,.00012427,43.0022,119.9625,272.7116,87.3593,0,U,56027,999,18050,-.56446447E-4,-.1814E-4,0
STARLINK-5779,2023-042AU,2026-07-01T21:37:00.770304,15.27578555,.00013659,43.0014,120.1250,259.2793,100.7905,0,U,56028,999,18050,.45689773E-4,.995E-5,0
STARLINK-5774,2023-042AV,2026-07-01T21:16:40.004832,15.27576171,.00016349,43.0024,120.0218,267.4236,92.6429,0,U,56029,999,18050,.7416518E-5,-.58E-6,0
STARLINK-5781,2023-042AW,2026-07-01T21:42:35.791488,15.27558283,.00015449,43.0008,120.1525,274.6698,85.3977,0,U,56030,999,18050,-.69166069E-4,-.2164E-4,0
STARLINK-5785,2023-042AX,2026-07-01T02:36:02.681568,15.27576266,.00016003,43.0035,124.5038,263.4543,96.6126,0,U,56031,999,18038,.16539242E-4,.193E-5,0
STARLINK-5786,2023-042AY,2026-07-01T20:28:45.892416,15.27580246,.00011515,43.0005,120.6290,264.8253,95.2467,0,U,56032,999,18049,.33858737E-4,.67E-5,0
STARLINK-5782,2023-042BA,2026-07-01T03:24:09.273600,15.27585173,.00011895,43.0009,124.7446,249.9069,110.1654,0,U,56034,999,18038,.76887098E-4,.1855E-4,0
STARLINK-5792,2023-042BB,2026-07-01T21:48:07.336800,15.27578605,.00010734,43.0019,120.1821,256.9154,103.1578,0,U,56035,999,18050,.37898555E-4,.781E-5,0
STARLINK-5790,2023-042BC,2026-07-01T20:26:54.938400,15.27578061,.00007532,43.0016,120.6036,229.4913,130.5873,0,U,56036,999,18049,.1865501E-4,.251E-5,0
STARLINK-5758,2023-042BD,2026-07-01T20:44:16.880928,15.27574741,.00013672,43.0020,105.9511,260.3594,99.7103,0,U,56037,999,18066,.45929485E-4,.1002E-4,0
STARLINK-5793,2023-042BE,2026-07-01T20:50:58.208928,15.27574064,.00004559,43.0008,120.7373,213.4164,146.6659,0,U,56038,999,18049,.46857336E-4,.1028E-4,0
STARLINK-5795,2023-042BF,2026-07-01T19:36:01.961568,15.27579272,.00008961,43.0022,106.4544,256.3336,103.7416,0,U,56039,999,18065,.24169028E-4,.403E-5,0
STARLINK-5798,2023-042BG,2026-07-01T02:25:51.877632,15.27575157,.00005971,43.0027,110.5352,245.3716,114.7074,0,U,56040,999,18054,.19021823E-4,.262E-5,0
STARLINK-5800,2023-042BH,2026-07-01T18:52:45.591456,15.27595221,.00013726,43.0039,109.6236,254.1979,105.8721,0,U,56041,999,18061,.66079112E-4,.1557E-4,0
ONEWEB-0537,2023-043A,2026-07-01T20:41:17.678688,13.16593996,.00022605,87.9084,225.8571,93.1725,266.9665,0,U,56046,999,16089,-.11127425E-3,-.3E-6,0
ONEWEB-0538,2023-043B,2026-07-01T20:32:10.235328,13.16593681,.00022566,87.9088,225.8609,100.2107,259.9279,0,U,56047,999,16090,-.16582423E-3,-.51E-6,0
ONEWEB-0546,2023-043C,2026-07-01T20:13:55.825536,13.16593857,.0002566,87.9087,225.8635,84.7680,275.3744,0,U,56048,999,16089,-.46579748E-3,-.165E-5,0
ONEWEB-0547,2023-043D,2026-07-01T20:34:50.776032,13.21826357,.00021112,87.9250,241.0555,103.0011,257.1359,0,U,56049,999,16016,.95694351E-4,.53E-6,0
ONEWEB-0548,2023-043E,2026-07-01T20:49:15.952800,13.16594023,.0001694,87.9082,225.8545,86.1231,274.0094,0,U,56050,999,16089,.4467766E-3,.184E-5,0
ONEWEB-0549,2023-043F,2026-07-01T22:15:22.664160,13.21826248,.00023429,87.9242,241.0474,104.2518,255.8876,0,U,56051,999,16017,.76367505E-4,.45E-6,0
ONEWEB-0550,2023-043G,2026-07-01T21:56:00.792384,13.21826229,.00018327,87.9246,241.0476,98.2244,261.9098,0,U,56052,999,16017,.12334338E-3,.64E-6,0
ONEWEB-0551,2023-043H,2026-07-01T21:50:54.010176,13.15546672,.00022173,87.8999,256.2930,107.3747,252.7626,0,U,56053,999,15833,.26029198E-4,.23E-6,0
ONEWEB-0552,2023-043J,2026-07-01T21:48:42.822144,13.21825489,.00019658,87.9242,241.0541,102.9952,257.1402,0,U,56054,999,16017,-.11279643E-4,.8E-7,0
ONEWEB-0553,2023-043K,2026-07-01T20:23:02.961312,13.16593749,.00022557,87.9086,225.8624,86.7679,273.3710,0,U,56055,999,16090,-.36456302E-3,-.127E-5,0
ONEWEB-0554,2023-043L,2026-07-01T20:04:48.979200,13.16594963,.00016399,87.9083,225.8736,84.9642,275.1676,0,U,56056,999,16088,-.4051607E-5,.11E-6,0
